{
  "type": "FeatureCollection",
  "features": [
    {
      "type": "Feature",
      "properties": {
        "norad_id": 33376,
        "name": "GALAXY 19 (G-19)",
        "group": "intelsat",
        "lat": -0.03175667104565989,
        "lon": -89.62984455009644,
        "alt_km": 35772.20779047286,
        "timestamp": "2025-12-04T19:33:59.298756+00:00",
        "meta_object_name": "GALAXY 19 (G-19)",
        "meta_object_id": "2008-045A",
        "meta_epoch": "2025-12-04T06:24:58.187232",
        "meta_mean_motion": 1.00270783,
        "meta_eccentricity": 0.00033778,
        "meta_inclination": 0.0149,
        "meta_ra_of_asc_node": 16.2013,
        "meta_arg_of_pericenter": 246.4858,
        "meta_mean_anomaly": 169.9049,
        "meta_ephemeris_type": 0,
        "meta_classification_type": "U",
        "meta_norad_cat_id": 33376,
        "meta_element_set_no": 999,
        "meta_rev_at_epoch": 6294,
        "meta_bstar": 0,
        "meta_mean_motion_dot": -1.23e-06,
        "meta_mean_motion_ddot": 0,
        "tle_line1": "1 33376U 08045A   25338.26734013 -.00000123  00000+0  00000+0 0  9991",
        "tle_line2": "2 33376   0.0149  16.2013 0003377 246.4858 169.9049  1.00270783 62945"
      },
      "geometry": {
        "type": "Point",
        "coordinates": [
          -89.62984455009644,
          -0.03175667104565989
        ]
      }
    },
    {
      "type": "Feature",
      "properties": {
        "norad_id": 35493,
        "name": "FM-5",
        "group": "intelsat",
        "lat": -0.014259591019005244,
        "lon": -78.77427051148497,
        "alt_km": 35788.762870566505,
        "timestamp": "2025-12-04T19:33:59.298766+00:00",
        "meta_object_name": "FM-5",
        "meta_object_id": "2009-034A",
        "meta_epoch": "2025-12-04T06:28:05.388384",
        "meta_mean_motion": 1.00269426,
        "meta_eccentricity": 0.00011086,
        "meta_inclination": 0.02,
        "meta_ra_of_asc_node": 287.2113,
        "meta_arg_of_pericenter": 238.7,
        "meta_mean_anomaly": 278.3151,
        "meta_ephemeris_type": 0,
        "meta_classification_type": "U",
        "meta_norad_cat_id": 35493,
        "meta_element_set_no": 999,
        "meta_rev_at_epoch": 4469,
        "meta_bstar": 0,
        "meta_mean_motion_dot": -1.84e-06,
        "meta_mean_motion_ddot": 0,
        "tle_line1": "1 35493U 09034A   25338.26950681 -.00000184  00000+0  00000+0 0  9990",
        "tle_line2": "2 35493   0.0200 287.2113 0001108 238.7000 278.3151  1.00269426 44692"
      },
      "geometry": {
        "type": "Point",
        "coordinates": [
          -78.77427051148497,
          -0.014259591019005244
        ]
      }
    },
    {
      "type": "Feature",
      "properties": {
        "norad_id": 36097,
        "name": "INTELSAT 14 (IS-14)",
        "group": "intelsat",
        "lat": 0.004343622685876561,
        "lon": -37.606415367965454,
        "alt_km": 35781.68339720901,
        "timestamp": "2025-12-04T19:33:59.298777+00:00",
        "meta_object_name": "INTELSAT 14 (IS-14)",
        "meta_object_id": "2009-064A",
        "meta_epoch": "2025-12-04T06:39:49.264992",
        "meta_mean_motion": 1.00271071,
        "meta_eccentricity": 0.00026882,
        "meta_inclination": 0.0137,
        "meta_ra_of_asc_node": 310.0555,
        "meta_arg_of_pericenter": 306.4876,
        "meta_mean_anomaly": 231.772,
        "meta_ephemeris_type": 0,
        "meta_classification_type": "U",
        "meta_norad_cat_id": 36097,
        "meta_element_set_no": 999,
        "meta_rev_at_epoch": 5865,
        "meta_bstar": 0,
        "meta_mean_motion_dot": -2.58e-06,
        "meta_mean_motion_ddot": 0,
        "tle_line1": "1 36097U 09064A   25338.27765353 -.00000258  00000+0  00000+0 0  9997",
        "tle_line2": "2 36097   0.0137 310.0555 0002688 306.4876 231.7720  1.00271071 58650"
      },
      "geometry": {
        "type": "Point",
        "coordinates": [
          -37.606415367965454,
          0.004343622685876561
        ]
      }
    },
    {
      "type": "Feature",
      "properties": {
        "norad_id": 36106,
        "name": "INTELSAT 15 (IS-15)",
        "group": "intelsat",
        "lat": 0.03397858275892921,
        "lon": 92.5090720517889,
        "alt_km": 35796.4806296649,
        "timestamp": "2025-12-04T19:33:59.298788+00:00",
        "meta_object_name": "INTELSAT 15 (IS-15)",
        "meta_object_id": "2009-067A",
        "meta_epoch": "2025-12-04T03:10:38.713728",
        "meta_mean_motion": 1.0027022,
        "meta_eccentricity": 0.00024584,
        "meta_inclination": 0.0139,
        "meta_ra_of_asc_node": 336.3645,
        "meta_arg_of_pericenter": 278.4254,
        "meta_mean_anomaly": 311.2428,
        "meta_ephemeris_type": 0,
        "meta_classification_type": "U",
        "meta_norad_cat_id": 36106,
        "meta_element_set_no": 999,
        "meta_rev_at_epoch": 3927,
        "meta_bstar": 0,
        "meta_mean_motion_dot": -1.69e-06,
        "meta_mean_motion_ddot": 0,
        "tle_line1": "1 36106U 09067A   25338.13239252 -.00000169  00000+0  00000+0 0  9991",
        "tle_line2": "2 36106   0.0139 336.3645 0002458 278.4254 311.2428  1.00270220 39278"
      },
      "geometry": {
        "type": "Point",
        "coordinates": [
          92.5090720517889,
          0.03397858275892921
        ]
      }
    },
    {
      "type": "Feature",
      "properties": {
        "norad_id": 36131,
        "name": "DIRECTV 12",
        "group": "intelsat",
        "lat": 0.0014660589724899001,
        "lon": -95.35587333696522,
        "alt_km": 35786.26417183995,
        "timestamp": "2025-12-04T19:33:59.298799+00:00",
        "meta_object_name": "DIRECTV 12",
        "meta_object_id": "2009-075A",
        "meta_epoch": "2025-12-04T06:23:20.842944",
        "meta_mean_motion": 1.00270945,
        "meta_eccentricity": 8.61e-06,
        "meta_inclination": 0.0116,
        "meta_ra_of_asc_node": 87.7232,
        "meta_arg_of_pericenter": 96.3466,
        "meta_mean_anomaly": 242.3934,
        "meta_ephemeris_type": 0,
        "meta_classification_type": "U",
        "meta_norad_cat_id": 36131,
        "meta_element_set_no": 999,
        "meta_rev_at_epoch": 4459,
        "meta_bstar": 0,
        "meta_mean_motion_dot": -8.8e-07,
        "meta_mean_motion_ddot": 0,
        "tle_line1": "1 36131U 09075A   25338.26621346 -.00000088  00000+0  00000+0 0  9991",
        "tle_line2": "2 36131   0.0116  87.7232 0000086  96.3466 242.3934  1.00270945 44598"
      },
      "geometry": {
        "type": "Point",
        "coordinates": [
          -95.35587333696522,
          0.0014660589724899001
        ]
      }
    },
    {
      "type": "Feature",
      "properties": {
        "norad_id": 36397,
        "name": "INTELSAT 16 (IS-16)",
        "group": "intelsat",
        "lat": -0.01889661149161786,
        "lon": -68.83190022827874,
        "alt_km": 35778.08555667175,
        "timestamp": "2025-12-04T19:33:59.298810+00:00",
        "meta_object_name": "INTELSAT 16 (IS-16)",
        "meta_object_id": "2010-006A",
        "meta_epoch": "2025-12-04T06:30:57.612960",
        "meta_mean_motion": 1.00269649,
        "meta_eccentricity": 0.00024234,
        "meta_inclination": 0.0101,
        "meta_ra_of_asc_node": 321.3035,
        "meta_arg_of_pericenter": 297.2807,
        "meta_mean_anomaly": 196.3001,
        "meta_ephemeris_type": 0,
        "meta_classification_type": "U",
        "meta_norad_cat_id": 36397,
        "meta_element_set_no": 999,
        "meta_rev_at_epoch": 5770,
        "meta_bstar": 0,
        "meta_mean_motion_dot": -2.29e-06,
        "meta_mean_motion_ddot": 0,
        "tle_line1": "1 36397U 10006A   25338.27150015 -.00000229  00000+0  00000+0 0  9999",
        "tle_line2": "2 36397   0.0101 321.3035 0002423 297.2807 196.3001  1.00269649 57701"
      },
      "geometry": {
        "type": "Point",
        "coordinates": [
          -68.83190022827874,
          -0.01889661149161786
        ]
      }
    },
    {
      "type": "Feature",
      "properties": {
        "norad_id": 37185,
        "name": "XM-5",
        "group": "intelsat",
        "lat": -0.04215178438417886,
        "lon": -107.82326484034476,
        "alt_km": 35787.40133632079,
        "timestamp": "2025-12-04T19:33:59.298820+00:00",
        "meta_object_name": "XM-5",
        "meta_object_id": "2010-053A",
        "meta_epoch": "2025-12-04T04:37:07.552992",
        "meta_mean_motion": 1.00269497,
        "meta_eccentricity": 0.00012779,
        "meta_inclination": 0.06,
        "meta_ra_of_asc_node": 273.4214,
        "meta_arg_of_pericenter": 241.3568,
        "meta_mean_anomaly": 232.5796,
        "meta_ephemeris_type": 0,
        "meta_classification_type": "U",
        "meta_norad_cat_id": 37185,
        "meta_element_set_no": 999,
        "meta_rev_at_epoch": 5552,
        "meta_bstar": 0,
        "meta_mean_motion_dot": -7e-08,
        "meta_mean_motion_ddot": 0,
        "tle_line1": "1 37185U 10053A   25338.19244853 -.00000007  00000+0  00000+0 0  9996",
        "tle_line2": "2 37185   0.0600 273.4214 0001277 241.3568 232.5796  1.00269497 55520"
      },
      "geometry": {
        "type": "Point",
        "coordinates": [
          -107.82326484034476,
          -0.04215178438417886
        ]
      }
    }
  ]
}